[
    {
        "CCSDS_OMM_VERS": "3.0",
        "COMMENT": "GENERATED VIA SPACE-TRACK.ORG API",
        "CREATION_DATE": "2025-05-04T02:26:54",
        "ORIGINATOR": "18 SPCS",
        "OBJECT_NAME": "BD-20",
        "OBJECT_ID": "2015-053A",
        "CENTER_NAME": "EARTH",
        "REF_FRAME": "TEME",
        "TIME_SYSTEM": "UTC",
        "MEAN_ELEMENT_THEORY": "SGP4",
        "EPOCH": "2025-05-03T20:17:38.562144",
        "MEAN_MOTION": "1.00277569",
        "ECCENTRICITY": "0.00582680",
        "INCLINATION": "49.8579",
        "RA_OF_ASC_NODE": "263.6364",
        "ARG_OF_PERICENTER": "186.8883",
        "MEAN_ANOMALY": "171.9774",
        "EPHEMERIS_TYPE": "0",
        "CLASSIFICATION_TYPE": "U",
        "NORAD_CAT_ID": "40938",
        "ELEMENT_SET_NO": "999",
        "REV_AT_EPOCH": "3524",
        "BSTAR": "0.00000000000000",
        "MEAN_MOTION_DOT": "-0.00000157",
        "MEAN_MOTION_DDOT": "0.0000000000000",
        "SEMIMAJOR_AXIS": "42163.111",
        "PERIOD": "1436.014",
        "APOAPSIS": "36030.652",
        "PERIAPSIS": "35539.300",
        "OBJECT_TYPE": "PAYLOAD",
        "RCS_SIZE": "LARGE",
        "COUNTRY_CODE": "PRC",
        "LAUNCH_DATE": "2015-09-29",
        "SITE": "XSC",
        "DECAY_DATE": null,
        "FILE": "4718307",
        "GP_ID": "286798390",
        "TLE_LINE0": "0 BD-20",
        "TLE_LINE1": "1 40938U 15053A   25123.84558521 -.00000157  00000-0  00000-0 0  9993",
        "TLE_LINE2": "2 40938  49.8579 263.6364 0058268 186.8883 171.9774  1.00277569 35246"
    }
]